FENGYUN 1C DEB
1 30654U 99025APL 14162.99499211  .00001384  00000-0  86796-3 0  7848
2 30654 099.2274 255.3159 0038429 269.9917 143.2373 14.05916150375068
FENGYUN 1C DEB
1 30655U 99025APM 14162.83097321  .00003720  00000-0  18626-2 0  9369
2 30655 098.7387 096.2390 0026458 038.7961 033.1574 14.17089340376052
FENGYUN 1C DEB
1 30656U 99025APN 14163.38526507  .00002972  00000-0  16255-2 0  8761
2 30656 099.0389 208.2886 0051597 214.2937 270.2799 14.12066483375184
FENGYUN 1C DEB
1 30657U 99025APP 14162.53998431  .00001862  00000-0  10261-2 0  8833
2 30657 099.0195 153.0082 0027097 129.3113 358.9174 14.12639300375821
FENGYUN 1C DEB
1 30658U 99025APQ 14162.72249593  .00000925  00000-0  87979-3 0  5054
2 30658 098.4704 228.8490 0210321 090.2314 034.7891 13.73472895368904
FENGYUN 1C DEB
1 30659U 99025APR 14162.55519942  .00007411  00000-0  99069-3 0  8046
2 30659 099.0304 063.7111 0192697 017.1676 101.7496 14.67724646392066
FENGYUN 1C DEB
1 30660U 99025APS 14162.16825354  .00000859  00000-0  14191-3 0  4387
2 30660 098.3592 134.8460 0207793 248.6672 174.3614 14.60078637391429
FENGYUN 1C DEB
1 30661U 99025APT 14159.54771066  .00000135  00000-0  79971-4 0  8712
2 30661 099.4908 000.6940 0148220 005.5315 057.7350 14.18756480382657
FENGYUN 1C DEB
1 30662U 99025APU 14161.38742278  .00001405  00000-0  87926-3 0  5245
2 30662 098.9621 112.6569 0043100 200.5959 287.6561 14.05831463373566
FENGYUN 1C DEB
1 30663U 99025APV 14160.01629031  .00001820  00000-0  16173-2 0   999
2 30663 099.2703 171.6880 0726851 012.6756 037.4820 13.03828645346228
FENGYUN 1C DEB
1 30664U 99025APW 14162.36632900  .00005864  00000-0  15606-2 0   340
2 30664 099.0139 306.2705 0065233 000.9129 051.6653 14.47677817382286
FENGYUN 1C DEB
1 30665U 99025APX 14162.79116736  .00001188  00000-0  86569-3 0  1783
2 30665 099.0006 094.5784 0088550 283.0091 131.2967 13.96311252371566
FENGYUN 1C DEB
1 30666U 99025APY 14162.66971760  .00000126  00000-0  11578-3 0  4182
2 30666 099.1085 198.6540 0055611 296.5087 188.4903 13.99593957372963
FENGYUN 1C DEB
1 30667U 99025APZ 14163.18590833  .00008627  00000-0  86406-3 0  2486
2 30667 098.8904 055.4930 0171635 288.8462 224.0429 14.81286758390903
FENGYUN 1C DEB
1 30668U 99025AQA 14163.18061372  .00001356  00000-0  97697-3 0  1663
2 30668 099.1496 137.0598 0089667 311.8012 168.2090 13.96693687371935
FENGYUN 1C DEB
1 30669U 99025AQB 14163.40020274  .00001228  00000-0  96490-3 0  1933
2 30669 098.5795 331.6934 0146278 273.3631 148.5464 13.88769895369588
FENGYUN 1C DEB
1 30670U 99025AQC 14162.88715065  .00000061  00000-0  54773-4 0  8003
2 30670 098.9606 140.1907 0040833 109.9088 313.5911 14.14423985377462
FENGYUN 1C DEB
1 30671U 99025AQD 14162.87171473  .00000983  00000-0  84251-3 0  1179
2 30671 099.3753 142.0048 0142172 131.1155 297.7578 13.84778576368949
FENGYUN 1C DEB
1 30672U 99025AQE 14163.82973593  .00010263  00000-0  20348-2 0  1290
2 30672 099.0843 006.3201 0089653 240.0209 242.3920 14.59910772385400
FENGYUN 1C DEB
1 30673U 99025AQF 14162.61156097  .00000085  00000-0  85275-4 0  1900
2 30673 099.1589 138.8772 0051503 227.3318 197.6788 14.01626281377237
FENGYUN 1C DEB
1 30674U 99025AQG 14163.50086601  .00003655  00000-0  19712-2 0  9683
2 30674 099.0030 150.0470 0068354 210.6491 272.6088 14.12157823374673
FENGYUN 1C DEB
1 30675U 99025AQH 14163.63468021  .00001512  00000-0  87238-3 0  8776
2 30675 099.0278 200.4117 0063891 231.1657 251.8983 14.09627672375055
FENGYUN 1C DEB
1 30676U 99025AQJ 14161.91538485  .00001053  00000-0  57339-3 0  8542
2 30676 098.2880 149.2749 0518725 127.6609 301.7047 13.61516899366213
FENGYUN 1C DEB
1 30677U 99025AQK 14163.28551352  .00001674  00000-0  78233-3 0  7604
2 30677 098.2513 010.8116 0079758 324.9532 091.0135 14.19903865381674
FENGYUN 1C DEB
1 30678U 99025AQL 14163.07192256  .00002508  00000-0  18366-2 0  8963
2 30678 099.0182 093.8487 0113831 003.6033 112.4257 13.93751360369970
FENGYUN 1C DEB
1 30679U 99025AQM 14163.17964360  .00000547  00000-0  55440-3 0  8672
2 30679 099.5263 140.2862 0177301 257.7908 167.1465 13.75017595367088
FENGYUN 1C DEB
1 30680U 99025AQN 14163.46563789  .00002460  00000-0  32299-2 0  4539
2 30680 099.5749 357.8941 0388363 095.0091 332.0334 13.34981135359423
FENGYUN 1C DEB
1 30683U 99025AQR 14163.54696727  .00001418  00000-0  11218-2 0  7623
2 30683 099.1796 102.3868 0166335 044.3739 013.4400 13.86852767371405
FENGYUN 1C DEB
1 30684U 99025AQS 14163.54805959  .00000708  00000-0  81070-3 0  4849
2 30684 099.8011 166.8953 0248173 150.6345 335.8104 13.60823785364930
FENGYUN 1C DEB
1 30686U 99025AQU 14163.45002950  .00004372  00000-0  93514-3 0  8325
2 30686 099.0654 341.0084 0214608 183.4407 243.5046 14.45963274386417
FENGYUN 1C DEB
1 30687U 99025AQV 14163.44823843  .00015213  00000-0  28468-2 0  9880
2 30687 098.9939 330.1495 0068252 255.8726 158.0567 14.63445978385791
FENGYUN 1C DEB
1 30688U 99025AQW 14162.79817406  .00001552  00000-0  86156-3 0  7626
2 30688 099.0002 189.0052 0022176 111.8643 303.3707 14.12546037377311
FENGYUN 1C DEB
1 30689U 99025AQX 14163.06324904  .00000621  00000-0  37170-3 0  8757
2 30689 098.9912 203.1848 0117881 084.3102 296.9426 14.07259801377727
FENGYUN 1C DEB
1 30690U 99025AQY 14162.73986257  .00000814  00000-0  65825-3 0  1718
2 30690 099.0877 089.3385 0120471 011.2723 052.6064 13.89829819371942
FENGYUN 1C DEB
1 30691U 99025AQZ 14163.52669448  .00000710  00000-0  64778-3 0  8917
2 30691 098.7836 010.3809 0151912 082.0596 340.5934 13.81197972370424
FENGYUN 1C DEB
1 30692U 99025ARA 14163.42034841  .00052875  00000-0  17370-2 0   174
2 30692 098.7140 332.7318 0237883 232.4893 188.6301 15.08364275390066
FENGYUN 1C DEB
1 30693U 99025ARB 14162.63630938  .00000134  00000-0  10175-3 0  7317
2 30693 098.9564 202.3037 0030836 199.1948 284.4568 14.09619617376964
FENGYUN 1C DEB
1 30694U 99025ARC 14163.58973795  .00002088  00000-0  37382-3 0  9135
2 30694 099.0601 028.7593 0212529 185.7434 174.1320 14.54493359387290
FENGYUN 1C DEB
1 30695U 99025ARD 14163.49064150  .00016926  00000-0  27503-2 0  1571
2 30695 098.9745 346.2796 0093913 187.2639 227.2129 14.68255965386435
FENGYUN 1C DEB
1 30696U 99025ARE 14162.73537250  .00001183  00000-0  45433-3 0  8810
2 30696 098.7820 170.1547 0109429 312.7613 101.6247 14.29158189380913
FENGYUN 1C DEB
1 30697U 99025ARF 14163.77370940  .00001333  00000-0  90512-3 0  1747
2 30697 099.2062 175.9393 0096760 345.1161 069.0296 13.99687776372952
FENGYUN 1C DEB
1 30699U 99025ARH 14162.65172461  .00002227  00000-0  11027-2 0  1053
2 30699 099.3391 306.2475 0002865 045.7455 070.1555 14.18398579376982
FENGYUN 1C DEB
1 30700U 99025ARJ 14162.94929344  .00000322  00000-0  16292-3 0  7340
2 30700 098.8779 156.6449 0089939 028.4236 000.5728 14.20923002379046
FENGYUN 1C DEB
1 30701U 99025ARK 14163.46273347 -.00000070  00000-0 -13257-4 0  8368
2 30701 098.9702 141.3077 0035738 116.6937 007.8754 14.13730148377606
FENGYUN 1C DEB
1 30702U 99025ARL 14162.39114039  .00000112  00000-0  11157-3 0  6934
2 30702 099.2009 211.1817 0075610 015.2784 105.5258 13.96265583375256
FENGYUN 1C DEB
1 30703U 99025ARM 14162.34375556  .00001236  00000-0  72603-3 0  1591
2 30703 098.8812 093.4615 0138127 215.8213 267.2933 14.05292975373765
FENGYUN 1C DEB
1 30704U 99025ARN 14161.03212144 -.00000062  00000-0 -11298-4 0  3392
2 30704 099.1408 181.4529 0088605 224.0030 189.8466 13.99441777373046
FENGYUN 1C DEB
1 30705U 99025ARP 14163.18415630  .00001139  00000-0  12034-2 0  4860
2 30705 102.2122 156.8806 0220283 023.0269 036.5074 13.67664859364216
FENGYUN 1C DEB
1 30706U 99025ARQ 14162.73133855  .00001047  00000-0  55809-3 0  6933
2 30706 099.0352 246.8655 0032237 196.2998 163.7141 14.15330732376764
FENGYUN 1C DEB
1 30707U 99025ARR 14158.86794896  .00001121  00000-0  68248-3 0  3831
2 30707 099.4060 286.7744 0033996 288.0824 203.5416 14.08129502374060
FENGYUN 1C DEB
1 30708U 99025ARS 14163.49369303  .00000273  00000-0  17896-3 0  6932
2 30708 099.0200 167.3456 0008835 177.3261 333.2438 14.10362531375875
FENGYUN 1C DEB
1 30709U 99025ART 14162.53744291  .00001420  00000-0  10570-2 0  6868
2 30709 099.0446 098.3065 0107267 353.6009 060.5375 13.93921983371895
FENGYUN 1C DEB
1 30710U 99025ARU 14162.33333455  .00001461  00000-0  12201-2 0  8213
2 30710 102.7671 337.4042 0277021 075.5091 043.0186 13.74666366368991
FENGYUN 1C DEB
1 30712U 99025ARW 14162.65992719  .00019122  00000-0  49765-2 0  9808
2 30712 099.6477 056.0427 0018076 207.1066 214.8710 14.49532078379549
FENGYUN 1C DEB
1 30714U 99025ARY 14162.44288038  .00000792  00000-0  58288-3 0  5371
2 30714 099.1993 218.6327 0070235 357.8220 135.8537 13.97476318372711
FENGYUN 1C DEB
1 30715U 99025ARZ 14163.50307509  .00001777  00000-0  12324-2 0  1522
2 30715 099.2201 155.1873 0078231 298.7415 184.9239 13.98853781372199
FENGYUN 1C DEB
1 30716U 99025ASA 14163.82791564  .00003282  00000-0  15331-2 0  8167
2 30716 098.9179 203.6847 0059546 130.0360 287.2858 14.20096675377371
FENGYUN 1C DEB
1 30717U 99025ASB 14163.42722696  .00001976  00000-0  12393-2 0  9764
2 30717 099.0372 127.1585 0059999 152.8256 332.2328 14.04802882373169
FENGYUN 1C DEB
1 30718U 99025ASC 14163.52300487  .00001807  00000-0  10800-2 0  6789
2 30718 099.0928 156.7074 0073558 124.9961 000.0691 14.07106903375022
FENGYUN 1C DEB
1 30719U 99025ASD 14162.76038685  .00002308  00000-0  12108-2 0  4590
2 30719 099.0031 175.8548 0022164 078.9970 337.8634 14.15096640376496
FENGYUN 1C DEB
1 30720U 99025ASE 14163.13021083  .00001409  00000-0  70228-3 0  3709
2 30720 098.9356 232.7120 0038524 159.4824 229.5601 14.18191293378299
FENGYUN 1C DEB
1 30721U 99025ASF 14162.74693532  .00003189  00000-0  14226-2 0  7425
2 30721 098.8999 180.0199 0064941 091.5327 330.0054 14.22344141376979
FENGYUN 1C DEB
1 30722U 99025ASG 14160.80202792  .00017391  00000-0  72565-2 0  3072
2 30722 098.3892 194.4063 0410078 056.7617 356.3240 13.89243003367343
